STARLINK-2476           
1 48134U 21027AU  26068.52710082 -.00000610  00000+0 -84653-5 0  9998
2 48134  53.1609 166.0280 0001733  85.9786 274.1413 15.30213621272485
YAOGAN-43 01G           
1 60464U 24148G   26068.44348481  .00010133  00000+0  35873-3 0  9993
2 60464  35.0006  62.0013 0007382 306.3543  53.6492 15.28332833 87004
